{"type": "FeatureCollection", "features": [ {"type": "Feature", "properties": {"norad_id": 67061, "name": "HULIANWANG DIGUI-121", "group": "last-30-days", "lat": 0.8228278246912192, "lon": -49.65970604146811, "alt_km": 804.4468906946695, "timestamp": "2025-12-27T13:34:48.010015+00:00", "meta": {"OBJECT_NAME": "HULIANWANG DIGUI-121", "OBJECT_ID": "2025-295C", "EPOCH": "2025-12-23T10:16:36.437664", "MEAN_MOTION": 14.25038967, "ECCENTRICITY": 0.00134061, "INCLINATION": 50.0019, "RA_OF_ASC_NODE": 327.1083, "ARG_OF_PERICENTER": 283.4183, "MEAN_ANOMALY": 76.5236, "EPHEMERIS_TYPE": 0, "CLASSIFICATION_TYPE": "U", "NORAD_CAT_ID": 67061, "ELEMENT_SET_NO": 999, "REV_AT_EPOCH": 164, "BSTAR": -3.3550159e-05, "MEAN_MOTION_DOT": -2.39e-06, "MEAN_MOTION_DDOT": 0}, "tle": {"line1": "1 67061U 25295C   25357.42819951 -.00000239  00000+0 -33550-4 0  9999", "line2": "2 67061  50.0019 327.1083 0013406 283.4183  76.5236 14.25038967  1649"}}, "geometry": {"type": "Point", "coordinates": [-49.65970604146811, 0.8228278246912192]}}, {"type": "Feature", "properties": {"norad_id": 67062, "name": "HULIANWANG DIGUI-122", "group": "last-30-days", "lat": 14.530212613853603, "lon": -37.805114918935104, "alt_km": 801.723359263131, "timestamp": "2025-12-27T13:34:48.010025+00:00", "meta": {"OBJECT_NAME": "HULIANWANG DIGUI-122", "OBJECT_ID": "2025-295D", "EPOCH": "2025-12-24T16:31:18.472800", "MEAN_MOTION": 14.25758016, "ECCENTRICITY": 0.00131642, "INCLINATION": 50.0052, "RA_OF_ASC_NODE": 321.783, "ARG_OF_PERICENTER": 295.5417, "MEAN_ANOMALY": 64.4135, "EPHEMERIS_TYPE": 0, "CLASSIFICATION_TYPE": "U", "NORAD_CAT_ID": 67062, "ELEMENT_SET_NO": 999, "REV_AT_EPOCH": 182, "BSTAR": 7.4037124e-05, "MEAN_MOTION_DOT": 1.7e-07, "MEAN_MOTION_DDOT": 0}, "tle": {"line1": "1 67062U 25295D   25358.68840825  .00000017  00000+0  74037-4 0  9990", "line2": "2 67062  50.0052 321.7830 0013164 295.5417  64.4135 14.25758016  1820"}}, "geometry": {"type": "Point", "coordinates": [-37.805114918935104, 14.530212613853603]}}, {"type": "Feature", "properties": {"norad_id": 67063, "name": "HULIANWANG DIGUI-123", "group": "last-30-days", "lat": 20.033210977181877, "lon": -32.56049175076985, "alt_km": 801.8288999919005, "timestamp": "2025-12-27T13:34:48.010035+00:00", "meta": {"OBJECT_NAME": "HULIANWANG DIGUI-123", "OBJECT_ID": "2025-295E", "EPOCH": "2025-12-23T18:37:38.191872", "MEAN_MOTION": 14.25890271, "ECCENTRICITY": 0.00124733, "INCLINATION": 50.0059, "RA_OF_ASC_NODE": 325.6275, "ARG_OF_PERICENTER": 291.5304, "MEAN_ANOMALY": 68.428, "EPHEMERIS_TYPE": 0, "CLASSIFICATION_TYPE": "U", "NORAD_CAT_ID": 67063, "ELEMENT_SET_NO": 999, "REV_AT_EPOCH": 169, "BSTAR": 6.4661609e-05, "MEAN_MOTION_DOT": -5e-08, "MEAN_MOTION_DDOT": 0}, "tle": {"line1": "1 67063U 25295E   25357.77613648 -.00000005  00000+0  64662-4 0  9992", "line2": "2 67063  50.0059 325.6275 0012473 291.5304  68.4280 14.25890271  1697"}}, "geometry": {"type": "Point", "coordinates": [-32.56049175076985, 20.033210977181877]}}, {"type": "Feature", "properties": {"norad_id": 67064, "name": "HULIANWANG DIGUI-124", "group": "last-30-days", "lat": 22.42253683954262, "lon": -30.139355639810923, "alt_km": 802.6559918610283, "timestamp": "2025-12-27T13:34:48.010048+00:00", "meta": {"OBJECT_NAME": "HULIANWANG DIGUI-124", "OBJECT_ID": "2025-295F", "EPOCH": "2025-12-22T05:36:45.096192", "MEAN_MOTION": 14.25948838, "ECCENTRICITY": 0.00121422, "INCLINATION": 50.0035, "RA_OF_ASC_NODE": 332.1235, "ARG_OF_PERICENTER": 280.5756, "MEAN_ANOMALY": 79.379, "EPHEMERIS_TYPE": 0, "CLASSIFICATION_TYPE": "U", "NORAD_CAT_ID": 67064, "ELEMENT_SET_NO": 999, "REV_AT_EPOCH": 147, "BSTAR": -0.00021789546, "MEAN_MOTION_DOT": -6.84e-06, "MEAN_MOTION_DDOT": 0}, "tle": {"line1": "1 67064U 25295F   25356.23385528 -.00000684  00000+0 -21790-3 0  9994", "line2": "2 67064  50.0035 332.1235 0012142 280.5756  79.3790 14.25948838  1479"}}, "geometry": {"type": "Point", "coordinates": [-30.139355639810923, 22.42253683954262]}}, {"type": "Feature", "properties": {"norad_id": 67065, "name": "HULIANWANG DIGUI-125", "group": "last-30-days", "lat": 22.69549425187238, "lon": -29.852039379133412, "alt_km": 801.6633193066691, "timestamp": "2025-12-27T13:34:48.010058+00:00", "meta": {"OBJECT_NAME": "HULIANWANG DIGUI-125", "OBJECT_ID": "2025-295G", "EPOCH": "2025-12-24T03:01:26.356800", "MEAN_MOTION": 14.25956035, "ECCENTRICITY": 0.00122653, "INCLINATION": 50.0009, "RA_OF_ASC_NODE": 324.1276, "ARG_OF_PERICENTER": 293.4537, "MEAN_ANOMALY": 66.5087, "EPHEMERIS_TYPE": 0, "CLASSIFICATION_TYPE": "U", "NORAD_CAT_ID": 67065, "ELEMENT_SET_NO": 999, "REV_AT_EPOCH": 174, "BSTAR": 6.5028559e-05, "MEAN_MOTION_DOT": -4e-08, "MEAN_MOTION_DDOT": 0}, "tle": {"line1": "1 67065U 25295G   25358.12599950 -.00000004  00000+0  65029-4 0  9990", "line2": "2 67065  50.0009 324.1276 0012265 293.4537  66.5087 14.25956035  1748"}}, "geometry": {"type": "Point", "coordinates": [-29.852039379133412, 22.69549425187238]}}, {"type": "Feature", "properties": {"norad_id": 67066, "name": "HULIANWANG DIGUI-126", "group": "last-30-days", "lat": 28.385212931370745, "lon": -23.44346772871907, "alt_km": 801.8772037303797, "timestamp": "2025-12-27T13:34:48.010070+00:00", "meta": {"OBJECT_NAME": "HULIANWANG DIGUI-126", "OBJECT_ID": "2025-295H", "EPOCH": "2025-12-24T16:26:54.676320", "MEAN_MOTION": 14.26099416, "ECCENTRICITY": 0.00114214, "INCLINATION": 50.0012, "RA_OF_ASC_NODE": 321.7514, "ARG_OF_PERICENTER": 292.7089, "MEAN_ANOMALY": 67.2617, "EPHEMERIS_TYPE": 0, "CLASSIFICATION_TYPE": "U", "NORAD_CAT_ID": 67066, "ELEMENT_SET_NO": 999, "REV_AT_EPOCH": 182, "BSTAR": 8.0653336e-05, "MEAN_MOTION_DOT": 3.4e-07, "MEAN_MOTION_DDOT": 0}, "tle": {"line1": "1 67066U 25295H   25358.68535505  .00000034  00000+0  80653-4 0  9990", "line2": "2 67066  50.0012 321.7514 0011421 292.7089  67.2617 14.26099416  1826"}}, "geometry": {"type": "Point", "coordinates": [-23.44346772871907, 28.385212931370745]}}, {"type": "Feature", "properties": {"norad_id": 67067, "name": "HULIANWANG DIGUI-127", "group": "last-30-days", "lat": 33.68489714995899, "lon": -16.408047593091684, "alt_km": 801.0921573336718, "timestamp": "2025-12-27T13:34:48.010093+00:00", "meta": {"OBJECT_NAME": "HULIANWANG DIGUI-127", "OBJECT_ID": "2025-295J", "EPOCH": "2025-12-22T15:39:07.411968", "MEAN_MOTION": 14.26251195, "ECCENTRICITY": 0.00108509, "INCLINATION": 50.0053, "RA_OF_ASC_NODE": 330.3407, "ARG_OF_PERICENTER": 289.3117, "MEAN_ANOMALY": 70.6623, "EPHEMERIS_TYPE": 0, "CLASSIFICATION_TYPE": "U", "NORAD_CAT_ID": 67067, "ELEMENT_SET_NO": 999, "REV_AT_EPOCH": 153, "BSTAR": -0.00027534515, "MEAN_MOTION_DOT": -8.25e-06, "MEAN_MOTION_DDOT": 0}, "tle": {"line1": "1 67067U 25295J   25356.65216912 -.00000825  00000+0 -27535-3 0  9993", "line2": "2 67067  50.0053 330.3407 0010850 289.3117  70.6623 14.26251195  1535"}}, "geometry": {"type": "Point", "coordinates": [-16.408047593091684, 33.68489714995899]}}, {"type": "Feature", "properties": {"norad_id": 67068, "name": "CZ-12 R/B", "group": "last-30-days", "lat": 15.635751378298185, "lon": 114.40873451327185, "alt_km": 717.7714099078366, "timestamp": "2025-12-27T13:34:48.010107+00:00", "meta": {"OBJECT_NAME": "CZ-12 R/B", "OBJECT_ID": "2025-295K", "EPOCH": "2025-12-27T06:11:06.855072", "MEAN_MOTION": 14.41130775, "ECCENTRICITY": 0.00568911, "INCLINATION": 49.9942, "RA_OF_ASC_NODE": 309.338, "ARG_OF_PERICENTER": 187.9515, "MEAN_ANOMALY": 172.0509, "EPHEMERIS_TYPE": 0, "CLASSIFICATION_TYPE": "U", "NORAD_CAT_ID": 67068, "ELEMENT_SET_NO": 999, "REV_AT_EPOCH": 220, "BSTAR": 4.444026e-05, "MEAN_MOTION_DOT": -2.1e-07, "MEAN_MOTION_DDOT": 0}, "tle": {"line1": "1 67068U 25295K   25361.25771823 -.00000021  00000+0  44440-4 0  9995", "line2": "2 67068  49.9942 309.3380 0056891 187.9515 172.0509 14.41130775  2208"}}, "geometry": {"type": "Point", "coordinates": [114.40873451327185, 15.635751378298185]}}, {"type": "Feature", "properties": {"norad_id": 67069, "name": "XIWANG-5 02", "group": "last-30-days", "lat": -41.32621588654115, "lon": -74.21400271620735, "alt_km": 525.5326302173271, "timestamp": "2025-12-27T13:34:48.010118+00:00", "meta": {"OBJECT_NAME": "XIWANG-5 02", "OBJECT_ID": "2025-296A", "EPOCH": "2025-12-23T12:00:44.103744", "MEAN_MOTION": 15.16891516, "ECCENTRICITY": 0.00145566, "INCLINATION": 41.3523, "RA_OF_ASC_NODE": 40.1941, "ARG_OF_PERICENTER": 102.8792, "MEAN_ANOMALY": 257.3656, "EPHEMERIS_TYPE": 0, "CLASSIFICATION_TYPE": "U", "NORAD_CAT_ID": 67069, "ELEMENT_SET_NO": 999, "REV_AT_EPOCH": 159, "BSTAR": 0.00060249038, "MEAN_MOTION_DOT": 0.00011945, "MEAN_MOTION_DDOT": 0}, "tle": {"line1": "1 67069U 25296A   25357.50051046  .00011945  00000+0  60249-3 0  9998", "line2": "2 67069  41.3523  40.1941 0014556 102.8792 257.3656 15.16891516  1599"}}, "geometry": {"type": "Point", "coordinates": [-74.21400271620735, -41.32621588654115]}}, {"type": "Feature", "properties": {"norad_id": 67070, "name": "DEAR-5", "group": "last-30-days", "lat": -41.262363021215755, "lon": -68.8951243003294, "alt_km": 527.0015183477663, "timestamp": "2025-12-27T13:34:48.010129+00:00", "meta": {"OBJECT_NAME": "DEAR-5", "OBJECT_ID": "2025-296B", "EPOCH": "2025-12-26T23:44:29.334624", "MEAN_MOTION": 15.16901884, "ECCENTRICITY": 0.00166246, "INCLINATION": 41.3552, "RA_OF_ASC_NODE": 20.2864, "ARG_OF_PERICENTER": 129.8184, "MEAN_ANOMALY": 230.4103, "EPHEMERIS_TYPE": 0, "CLASSIFICATION_TYPE": "U", "NORAD_CAT_ID": 67070, "ELEMENT_SET_NO": 999, "REV_AT_EPOCH": 211, "BSTAR": 0.00034471777, "MEAN_MOTION_DOT": 6.748e-05, "MEAN_MOTION_DDOT": 0}, "tle": {"line1": "1 67070U 25296B   25360.98922841  .00006748  00000+0  34472-3 0  9990", "line2": "2 67070  41.3552  20.2864 0016624 129.8184 230.4103 15.16901884  2116"}}, "geometry": {"type": "Point", "coordinates": [-68.8951243003294, -41.262363021215755]}}]}